[{"OBJECT_NAME":"STARLINK-5816","OBJECT_ID":"2023-028AP","EPOCH":"2025-09-22T05:36:50.810688","MEAN_MOTION":14.98330671,"ECCENTRICITY":0.00033548,"INCLINATION":69.998,"RA_OF_ASC_NODE":289.0476,"ARG_OF_PERICENTER":269.8741,"MEAN_ANOMALY":90.2034,"EPHEMERIS_TYPE":0,"CLASSIFICATION_TYPE":"U","NORAD_CAT_ID":55778,"ELEMENT_SET_NO":999,"REV_AT_EPOCH":14130,"BSTAR":-1.2982826e-5,"MEAN_MOTION_DOT":-2.48e-6,"MEAN_MOTION_DDOT":0},{"OBJECT_NAME":"STARLINK-5817","OBJECT_ID":"2023-028AQ","EPOCH":"2025-09-22T06:30:32.906016","MEAN_MOTION":14.98351266,"ECCENTRICITY":0.00032903,"INCLINATION":69.9984,"RA_OF_ASC_NODE":268.895,"ARG_OF_PERICENTER":264.8021,"MEAN_ANOMALY":95.2762,"EPHEMERIS_TYPE":0,"CLASSIFICATION_TYPE":"U","NORAD_CAT_ID":55779,"ELEMENT_SET_NO":999,"REV_AT_EPOCH":14180,"BSTAR":0.00035294491,"MEAN_MOTION_DOT":4.123e-5,"MEAN_MOTION_DDOT":0},{"OBJECT_NAME":"STARLINK-5819","OBJECT_ID":"2023-028AR","EPOCH":"2025-09-22T05:30:51.484320","MEAN_MOTION":14.98329738,"ECCENTRICITY":0.00039318,"INCLINATION":69.9977,"RA_OF_ASC_NODE":289.033,"ARG_OF_PERICENTER":264.371,"MEAN_ANOMALY":95.7,"EPHEMERIS_TYPE":0,"CLASSIFICATION_TYPE":"U","NORAD_CAT_ID":55780,"ELEMENT_SET_NO":999,"REV_AT_EPOCH":14130,"BSTAR":-9.6375138e-5,"MEAN_MOTION_DOT":-1.243e-5,"MEAN_MOTION_DDOT":0},{"OBJECT_NAME":"STARLINK-5820","OBJECT_ID":"2023-028AS","EPOCH":"2025-09-22T05:48:52.166880","MEAN_MOTION":14.98332471,"ECCENTRICITY":0.00031842,"INCLINATION":69.9981,"RA_OF_ASC_NODE":289.1107,"ARG_OF_PERICENTER":269.9781,"MEAN_ANOMALY":90.1013,"EPHEMERIS_TYPE":0,"CLASSIFICATION_TYPE":"U","NORAD_CAT_ID":55781,"ELEMENT_SET_NO":999,"REV_AT_EPOCH":14130,"BSTAR":-1.1161257e-5,"MEAN_MOTION_DOT":-2.26e-6,"MEAN_MOTION_DDOT":0},{"OBJECT_NAME":"STARLINK-5826","OBJECT_ID":"2023-028AT","EPOCH":"2025-09-22T06:24:51.038496","MEAN_MOTION":14.98329117,"ECCENTRICITY":0.00036892,"INCLINATION":69.9986,"RA_OF_ASC_NODE":269.2877,"ARG_OF_PERICENTER":267.0278,"MEAN_ANOMALY":93.0458,"EPHEMERIS_TYPE":0,"CLASSIFICATION_TYPE":"U","NORAD_CAT_ID":55782,"ELEMENT_SET_NO":999,"REV_AT_EPOCH":14179,"BSTAR":1.754297e-5,"MEAN_MOTION_DOT":1.16e-6,"MEAN_MOTION_DDOT":0},{"OBJECT_NAME":"STARLINK-5825","OBJECT_ID":"2023-028AU","EPOCH":"2025-09-22T06:24:36.886176","MEAN_MOTION":14.98322378,"ECCENTRICITY":0.00030813,"INCLINATION":69.9993,"RA_OF_ASC_NODE":269.2868,"ARG_OF_PERICENTER":271.2909,"MEAN_ANOMALY":88.7897,"EPHEMERIS_TYPE":0,"CLASSIFICATION_TYPE":"U","NORAD_CAT_ID":55783,"ELEMENT_SET_NO":999,"REV_AT_EPOCH":14179,"BSTAR":-0.0001119932,"MEAN_MOTION_DOT":-1.429e-5,"MEAN_MOTION_DDOT":0},{"OBJECT_NAME":"STARLINK-5797","OBJECT_ID":"2023-028AV","EPOCH":"2025-09-22T06:00:48.079008","MEAN_MOTION":14.98325558,"ECCENTRICITY":0.00034668,"INCLINATION":69.9984,"RA_OF_ASC_NODE":269.2285,"ARG_OF_PERICENTER":270.3265,"MEAN_ANOMALY":89.7496,"EPHEMERIS_TYPE":0,"CLASSIFICATION_TYPE":"U","NORAD_CAT_ID":55784,"ELEMENT_SET_NO":999,"REV_AT_EPOCH":14179,"BSTAR":-0.00019831824,"MEAN_MOTION_DOT":-2.458e-5,"MEAN_MOTION_DDOT":0},{"OBJECT_NAME":"STARLINK-5818","OBJECT_ID":"2023-028AW","EPOCH":"2025-09-22T06:18:35.671968","MEAN_MOTION":14.98336415,"ECCENTRICITY":0.00035042,"INCLINATION":69.9983,"RA_OF_ASC_NODE":269.272,"ARG_OF_PERICENTER":269.6648,"MEAN_ANOMALY":90.4109,"EPHEMERIS_TYPE":0,"CLASSIFICATION_TYPE":"U","NORAD_CAT_ID":55785,"ELEMENT_SET_NO":999,"REV_AT_EPOCH":14179,"BSTAR":4.0245849e-5,"MEAN_MOTION_DOT":3.87e-6,"MEAN_MOTION_DDOT":0},{"OBJECT_NAME":"STARLINK-5823","OBJECT_ID":"2023-028AX","EPOCH":"2025-09-22T06:00:33.930144","MEAN_MOTION":14.98331855,"ECCENTRICITY":0.00036483,"INCLINATION":69.9979,"RA_OF_ASC_NODE":269.2279,"ARG_OF_PERICENTER":268.8718,"MEAN_ANOMALY":91.2023,"EPHEMERIS_TYPE":0,"CLASSIFICATION_TYPE":"U","NORAD_CAT_ID":55786,"ELEMENT_SET_NO":999,"REV_AT_EPOCH":14179,"BSTAR":4.4984416e-5,"MEAN_MOTION_DOT":4.44e-6,"MEAN_MOTION_DDOT":0},{"OBJECT_NAME":"STARLINK-5811","OBJECT_ID":"2023-028AY","EPOCH":"2025-09-22T06:12:35.266464","MEAN_MOTION":14.98333168,"ECCENTRICITY":0.00033636,"INCLINATION":69.9983,"RA_OF_ASC_NODE":269.2566,"ARG_OF_PERICENTER":269.7734,"MEAN_ANOMALY":90.3039,"EPHEMERIS_TYPE":0,"CLASSIFICATION_TYPE":"U","NORAD_CAT_ID":55787,"ELEMENT_SET_NO":999,"REV_AT_EPOCH":14179,"BSTAR":4.2447766e-5,"MEAN_MOTION_DOT":4.13e-6,"MEAN_MOTION_DDOT":0},{"OBJECT_NAME":"STARLINK-5804","OBJECT_ID":"2023-028AZ","EPOCH":"2025-09-22T06:06:34.640640","MEAN_MOTION":14.9833194,"ECCENTRICITY":0.00033905,"INCLINATION":69.9984,"RA_OF_ASC_NODE":269.2426,"ARG_OF_PERICENTER":265.7371,"MEAN_ANOMALY":94.34,"EPHEMERIS_TYPE":0,"CLASSIFICATION_TYPE":"U","NORAD_CAT_ID":55788,"ELEMENT_SET_NO":999,"REV_AT_EPOCH":14179,"BSTAR":4.639936e-5,"MEAN_MOTION_DOT":4.61e-6,"MEAN_MOTION_DDOT":0},{"OBJECT_NAME":"STARLINK-5815","OBJECT_ID":"2023-028BA","EPOCH":"2025-09-22T07:06:39.235680","MEAN_MOTION":14.98338148,"ECCENTRICITY":0.00030629,"INCLINATION":69.9983,"RA_OF_ASC_NODE":268.9856,"ARG_OF_PERICENTER":270.7634,"MEAN_ANOMALY":89.3174,"EPHEMERIS_TYPE":0,"CLASSIFICATION_TYPE":"U","NORAD_CAT_ID":55789,"ELEMENT_SET_NO":999,"REV_AT_EPOCH":14180,"BSTAR":-3.1969418e-5,"MEAN_MOTION_DOT":-4.75e-6,"MEAN_MOTION_DDOT":0},{"OBJECT_NAME":"STARLINK-5813","OBJECT_ID":"2023-028BB","EPOCH":"2025-09-22T07:12:54.832896","MEAN_MOTION":14.98322956,"ECCENTRICITY":0.00039206,"INCLINATION":69.9974,"RA_OF_ASC_NODE":269.0018,"ARG_OF_PERICENTER":267.0398,"MEAN_ANOMALY":93.0313,"EPHEMERIS_TYPE":0,"CLASSIFICATION_TYPE":"U","NORAD_CAT_ID":55790,"ELEMENT_SET_NO":999,"REV_AT_EPOCH":14180,"BSTAR":0.00014859647,"MEAN_MOTION_DOT":1.68e-5,"MEAN_MOTION_DDOT":0},{"OBJECT_NAME":"STARLINK-5807","OBJECT_ID":"2023-028BC","EPOCH":"2025-09-22T05:54:33.627456","MEAN_MOTION":14.98340655,"ECCENTRICITY":0.0003956,"INCLINATION":69.9976,"RA_OF_ASC_NODE":269.2138,"ARG_OF_PERICENTER":272.3144,"MEAN_ANOMALY":87.7562,"EPHEMERIS_TYPE":0,"CLASSIFICATION_TYPE":"U","NORAD_CAT_ID":55791,"ELEMENT_SET_NO":999,"REV_AT_EPOCH":14179,"BSTAR":-0.00030111486,"MEAN_MOTION_DOT":-3.685e-5,"MEAN_MOTION_DDOT":0},{"OBJECT_NAME":"STARLINK-5856","OBJECT_ID":"2023-037A","EPOCH":"2025-09-22T06:08:15.193824","MEAN_MOTION":14.98335036,"ECCENTRICITY":0.00031066,"INCLINATION":70.0033,"RA_OF_ASC_NODE":9.2924,"ARG_OF_PERICENTER":276.742,"MEAN_ANOMALY":83.3386,"EPHEMERIS_TYPE":0,"CLASSIFICATION_TYPE":"U","NORAD_CAT_ID":55914,"ELEMENT_SET_NO":999,"REV_AT_EPOCH":13894,"BSTAR":0.00018702648,"MEAN_MOTION_DOT":2.14e-5,"MEAN_MOTION_DDOT":0},{"OBJECT_NAME":"STARLINK-5859","OBJECT_ID":"2023-037B","EPOCH":"2025-09-22T00:55:48.427680","MEAN_MOTION":14.98332062,"ECCENTRICITY":0.00031945,"INCLINATION":70.0018,"RA_OF_ASC_NODE":9.7367,"ARG_OF_PERICENTER":268.6517,"MEAN_ANOMALY":91.4276,"EPHEMERIS_TYPE":0,"CLASSIFICATION_TYPE":"U","NORAD_CAT_ID":55915,"ELEMENT_SET_NO":999,"REV_AT_EPOCH":13891,"BSTAR":4.06502e-5,"MEAN_MOTION_DOT":3.92e-6,"MEAN_MOTION_DDOT":0}]
