STARLINK-5816           
1 55778U 23028AP  25265.23392142 -.00000248  00000+0 -12983-4 0  9995
2 55778  69.9980 289.0476 0003354 269.8741  90.2034 14.98330671141302
STARLINK-5817           
1 55779U 23028AQ  25265.27121419  .00004123  00000+0  35294-3 0  9990
2 55779  69.9984 268.8950 0003290 264.8021  95.2762 14.98351266141805
STARLINK-5819           
1 55780U 23028AR  25265.22976255 -.00001243  00000+0 -96375-4 0  9993
2 55780  69.9977 289.0330 0003931 264.3710  95.7000 14.98329738141302
STARLINK-5820           
1 55781U 23028AS  25265.24227045 -.00000226  00000+0 -11161-4 0  9992
2 55781  69.9981 289.1107 0003184 269.9781  90.1013 14.98332471141301
STARLINK-5826           
1 55782U 23028AT  25265.26725739  .00000116  00000+0  17543-4 0  9994
2 55782  69.9986 269.2877 0003689 267.0278  93.0458 14.98329117141791
STARLINK-5825           
1 55783U 23028AU  25265.26709359 -.00001429  00000+0 -11199-3 0  9995
2 55783  69.9993 269.2868 0003081 271.2909  88.7897 14.98322378141794
STARLINK-5797           
1 55784U 23028AV  25265.25055647 -.00002458  00000+0 -19832-3 0  9994
2 55784  69.9984 269.2285 0003466 270.3265  89.7496 14.98325558141799
STARLINK-5818           
1 55785U 23028AW  25265.26291287  .00000387  00000+0  40246-4 0  9999
2 55785  69.9983 269.2720 0003504 269.6648  90.4109 14.98336415141796
STARLINK-5823           
1 55786U 23028AX  25265.25039271  .00000444  00000+0  44984-4 0  9999
2 55786  69.9979 269.2279 0003648 268.8718  91.2023 14.98331855141796
STARLINK-5811           
1 55787U 23028AY  25265.25874151  .00000413  00000+0  42448-4 0  9993
2 55787  69.9983 269.2566 0003363 269.7734  90.3039 14.98333168141799
STARLINK-5804           
1 55788U 23028AZ  25265.25456760  .00000461  00000+0  46399-4 0  9998
2 55788  69.9984 269.2426 0003390 265.7371  94.3400 14.98331940141791
STARLINK-5815           
1 55789U 23028BA  25265.29628745 -.00000475  00000+0 -31969-4 0  9991
2 55789  69.9983 268.9856 0003062 270.7634  89.3174 14.98338148141809
STARLINK-5813           
1 55790U 23028BB  25265.30063464  .00001680  00000+0  14860-3 0  9993
2 55790  69.9974 269.0018 0003920 267.0398  93.0313 14.98322956141809
STARLINK-5807           
1 55791U 23028BC  25265.24622254 -.00003685  00000+0 -30111-3 0  9991
2 55791  69.9976 269.2138 0003956 272.3144  87.7562 14.98340655141794
STARLINK-5856           
1 55914U 23037A   25265.25573141  .00002140  00000+0  18703-3 0  9995
2 55914  70.0033   9.2924 0003106 276.7420  83.3386 14.98335036138941
STARLINK-5859           
1 55915U 23037B   25265.03875495  .00000392  00000+0  40650-4 0  9993
2 55915  70.0018   9.7367 0003194 268.6517  91.4276 14.98332062138916
